start=new Date('2023-03-23T00:00:00.000Z').valueOf();
sats=[{"CENTER_NAME":"EARTH","MEAN_MOTION_DOT":"0.00206754","APOAPSIS":"424.824","INCLINATION":"52.9963","RA_OF_ASC_NODE":"211.8590","TIME_SYSTEM":"UTC","ELEMENT_SET_NO":"999","MEAN_MOTION":"15.49857301","REF_FRAME":"TEME","CLASSIFICATION_TYPE":"U","MEAN_ANOMALY":"54.1136","PERIAPSIS":"409.466","FILE":"3867354","BSTAR":"0.00355110000000","COUNTRY_CODE":"US","OBJECT_TYPE":"PAYLOAD","NORAD_CAT_ID":"45575","SITE":"AFETR","SEMIMAJOR_AXIS":"6795.280","EPHEMERIS_TYPE":"0","OBJECT_NAME":"STARLINK-1326","TLE_LINE2":"2 45575  52.9963 211.8590 0011301 305.8821  54.1136 15.49857301162261","LAUNCH_DATE":"2020-04-22","OBJECT_ID":"2020-025AW","EPOCH":"2023-03-22T12:06:49.504896","MEAN_MOTION_DDOT":"0.0000000000000","DECAY_DATE":null,"GP_ID":"228632321","TLE_LINE1":"1 45575U 20025AW  23081.50473964  .00206754  00000-0  35511-2 0  9998","REV_AT_EPOCH":"16226","RCS_SIZE":"LARGE","ARG_OF_PERICENTER":"305.8821","MEAN_ELEMENT_THEORY":"SGP4","PERIOD":"92.912","ECCENTRICITY":"0.00113010"},{"ECCENTRICITY":"0.00015080","MEAN_ELEMENT_THEORY":"SGP4","PERIOD":"95.590","GP_ID":"228638675","TLE_LINE1":"1 45576U 20025AX  23081.74557345  .00023343  00000-0  15793-2 0  9992","ARG_OF_PERICENTER":"82.0942","RCS_SIZE":"LARGE","REV_AT_EPOCH":"16168","EPOCH":"2023-03-22T17:53:37.546080","DECAY_DATE":null,"MEAN_MOTION_DDOT":"0.0000000000000","OBJECT_ID":"2020-025AX","LAUNCH_DATE":"2020-04-22","TLE_LINE2":"2 45576  53.0508 258.1455 0001508  82.0942 278.0218 15.06434727161688","OBJECT_NAME":"STARLINK-1328","OBJECT_TYPE":"PAYLOAD","BSTAR":"0.00157930000000","COUNTRY_CODE":"US","EPHEMERIS_TYPE":"0","SEMIMAJOR_AXIS":"6925.242","SITE":"AFETR","NORAD_CAT_ID":"45576","FILE":"3867694","PERIAPSIS":"546.063","CLASSIFICATION_TYPE":"U","REF_FRAME":"TEME","MEAN_MOTION":"15.06434727","MEAN_ANOMALY":"278.0218","ELEMENT_SET_NO":"999","TIME_SYSTEM":"UTC","INCLINATION":"53.0508","RA_OF_ASC_NODE":"258.1455","APOAPSIS":"548.151","MEAN_MOTION_DOT":"0.00023343","CENTER_NAME":"EARTH"},{"DECAY_DATE":null,"MEAN_MOTION_DDOT":"0.0000000000000","EPOCH":"2023-03-22T10:29:53.934720","REV_AT_EPOCH":"16174","ARG_OF_PERICENTER":"240.5755","RCS_SIZE":"LARGE","TLE_LINE1":"1 45577U 20025AY  23081.43742980  .00062711  00000-0  27650-2 0  9997","GP_ID":"228632502","PERIOD":"94.661","MEAN_ELEMENT_THEORY":"SGP4","ECCENTRICITY":"0.00043630","SEMIMAJOR_AXIS":"6880.302","SITE":"AFETR","NORAD_CAT_ID":"45577","EPHEMERIS_TYPE":"0","COUNTRY_CODE":"US","BSTAR":"0.00276500000000","OBJECT_TYPE":"PAYLOAD","OBJECT_NAME":"STARLINK-1330","TLE_LINE2":"2 45577  53.0480 251.1550 0004363 240.5755 119.4805 15.21218345161742","LAUNCH_DATE":"2020-04-22","OBJECT_ID":"2020-025AY","ELEMENT_SET_NO":"999","MEAN_ANOMALY":"119.4805","MEAN_MOTION":"15.21218345","REF_FRAME":"TEME","CLASSIFICATION_TYPE":"U","PERIAPSIS":"499.165","FILE":"3867349","CENTER_NAME":"EARTH","MEAN_MOTION_DOT":"0.00062711","APOAPSIS":"505.168","RA_OF_ASC_NODE":"251.1550","INCLINATION":"53.0480","TIME_SYSTEM":"UTC"},{"ELEMENT_SET_NO":"999","MEAN_ANOMALY":"276.8611","MEAN_MOTION":"15.06425184","REF_FRAME":"TEME","CLASSIFICATION_TYPE":"U","PERIAPSIS":"546.245","FILE":"3867712","CENTER_NAME":"EARTH","MEAN_MOTION_DOT":"0.00019175","APOAPSIS":"548.028","RA_OF_ASC_NODE":"257.8790","INCLINATION":"53.0517","TIME_SYSTEM":"UTC","DECAY_DATE":null,"MEAN_MOTION_DDOT":"0.0000000000000","EPOCH":"2023-03-22T19:18:33.691104","REV_AT_EPOCH":"16169","RCS_SIZE":"LARGE","ARG_OF_PERICENTER":"83.2524","GP_ID":"228638883","TLE_LINE1":"1 45578U 20025AZ  23081.80455661  .00019175  00000-0  13018-2 0  9995","PERIOD":"95.591","MEAN_ELEMENT_THEORY":"SGP4","ECCENTRICITY":"0.00012870","NORAD_CAT_ID":"45578","SITE":"AFETR","SEMIMAJOR_AXIS":"6925.271","EPHEMERIS_TYPE":"0","COUNTRY_CODE":"US","BSTAR":"0.00130180000000","OBJECT_TYPE":"PAYLOAD","OBJECT_NAME":"STARLINK-1331","TLE_LINE2":"2 45578  53.0517 257.8790 0001287  83.2524 276.8611 15.06425184161692","LAUNCH_DATE":"2020-04-22","OBJECT_ID":"2020-025AZ"},{"CENTER_NAME":"EARTH","APOAPSIS":"547.910","MEAN_MOTION_DOT":"0.00033488","INCLINATION":"53.0548","RA_OF_ASC_NODE":"218.6047","TIME_SYSTEM":"UTC","ELEMENT_SET_NO":"999","CLASSIFICATION_TYPE":"U","REF_FRAME":"TEME","MEAN_MOTION":"15.06435214","MEAN_ANOMALY":"282.9162","PERIAPSIS":"546.301","FILE":"3867694","OBJECT_TYPE":"PAYLOAD","COUNTRY_CODE":"US","BSTAR":"0.00225430000000","EPHEMERIS_TYPE":"0","SITE":"AFETR","NORAD_CAT_ID":"45579","SEMIMAJOR_AXIS":"6925.241","OBJECT_NAME":"STARLINK-1332","OBJECT_ID":"2020-025BA","LAUNCH_DATE":"2020-04-22","TLE_LINE2":"2 45579  53.0548 218.6047 0001162  77.1957 282.9162 15.06435214162247","EPOCH":"2023-03-22T16:18:07.700256","MEAN_MOTION_DDOT":"0.0000000000000","DECAY_DATE":null,"TLE_LINE1":"1 45579U 20025BA  23081.67925579  .00033488  00000-0  22543-2 0  9997","GP_ID":"228639175","RCS_SIZE":"LARGE","ARG_OF_PERICENTER":"77.1957","REV_AT_EPOCH":"16224","MEAN_ELEMENT_THEORY":"SGP4","PERIOD":"95.590","ECCENTRICITY":"0.00011620"},{"APOAPSIS":"547.566","MEAN_MOTION_DOT":"0.00014864","CENTER_NAME":"EARTH","TIME_SYSTEM":"UTC","INCLINATION":"53.0537","RA_OF_ASC_NODE":"269.3387","CLASSIFICATION_TYPE":"U","REF_FRAME":"TEME","MEAN_MOTION":"15.06405803","MEAN_ANOMALY":"289.7258","ELEMENT_SET_NO":"999","FILE":"3867349","PERIAPSIS":"546.825","OBJECT_TYPE":"PAYLOAD","COUNTRY_CODE":"US","BSTAR":"0.00101450000000","EPHEMERIS_TYPE":"0","NORAD_CAT_ID":"45580","SITE":"AFETR","SEMIMAJOR_AXIS":"6925.331","OBJECT_ID":"2020-025BB","LAUNCH_DATE":"2020-04-22","TLE_LINE2":"2 45580  53.0537 269.3387 0000535  70.3789 289.7258 15.06405803161508","OBJECT_NAME":"STARLINK-1333","TLE_LINE1":"1 45580U 20025BB  23081.47926216  .00014864  00000-0  10145-2 0  9998","GP_ID":"228632329","ARG_OF_PERICENTER":"70.3789","RCS_SIZE":"LARGE","REV_AT_EPOCH":"16150","EPOCH":"2023-03-22T11:30:08.250624","MEAN_MOTION_DDOT":"0.0000000000000","DECAY_DATE":null,"ECCENTRICITY":"0.00005350","MEAN_ELEMENT_THEORY":"SGP4","PERIOD":"95.592"},{"MEAN_ELEMENT_THEORY":"SGP4","PERIOD":"95.590","ECCENTRICITY":"0.00010460","EPOCH":"2023-03-22T17:58:56.157312","MEAN_MOTION_DDOT":"0.0000000000000","DECAY_DATE":null,"GP_ID":"228638887","TLE_LINE1":"1 45581U 20025BC  23081.74926108  .00021921  00000-0  14847-2 0  9994","REV_AT_EPOCH":"16168","ARG_OF_PERICENTER":"76.9961","RCS_SIZE":"LARGE","OBJECT_NAME":"STARLINK-1335","TLE_LINE2":"2 45581  53.0515 258.1274 0001046  76.9961 283.1144 15.06431120161680","OBJECT_ID":"2020-025BC","LAUNCH_DATE":"2020-04-22","BSTAR":"0.00148470000000","COUNTRY_CODE":"US","OBJECT_TYPE":"PAYLOAD","NORAD_CAT_ID":"45581","SITE":"AFETR","SEMIMAJOR_AXIS":"6925.253","EPHEMERIS_TYPE":"0","PERIAPSIS":"546.394","FILE":"3867712","ELEMENT_SET_NO":"999","MEAN_MOTION":"15.06431120","REF_FRAME":"TEME","CLASSIFICATION_TYPE":"U","MEAN_ANOMALY":"283.1144","INCLINATION":"53.0515","RA_OF_ASC_NODE":"258.1274","TIME_SYSTEM":"UTC","CENTER_NAME":"EARTH","MEAN_MOTION_DOT":"0.00021921","APOAPSIS":"547.843"},{"ECCENTRICITY":"0.00007590","PERIOD":"95.590","MEAN_ELEMENT_THEORY":"SGP4","RCS_SIZE":"LARGE","ARG_OF_PERICENTER":"75.8263","REV_AT_EPOCH":"16168","TLE_LINE1":"1 45582U 20025BD  23081.77137386  .00019128  00000-0  12984-2 0  9996","GP_ID":"228639429","DECAY_DATE":null,"MEAN_MOTION_DDOT":"0.0000000000000","EPOCH":"2023-03-22T18:30:46.701504","LAUNCH_DATE":"2020-04-22","OBJECT_ID":"2020-025BD","TLE_LINE2":"2 45582  53.0531 258.0214 0000759  75.8263 284.2810 15.06432879161689","OBJECT_NAME":"STARLINK-1337","EPHEMERIS_TYPE":"0","SITE":"AFETR","SEMIMAJOR_AXIS":"6925.248","NORAD_CAT_ID":"45582","OBJECT_TYPE":"PAYLOAD","BSTAR":"0.00129840000000","COUNTRY_CODE":"US","FILE":"3867715","PERIAPSIS":"546.587","MEAN_ANOMALY":"284.2810","CLASSIFICATION_TYPE":"U","REF_FRAME":"TEME","MEAN_MOTION":"15.06432879","ELEMENT_SET_NO":"999","TIME_SYSTEM":"UTC","RA_OF_ASC_NODE":"258.0214","INCLINATION":"53.0531","APOAPSIS":"547.638","MEAN_MOTION_DOT":"0.00019128","CENTER_NAME":"EARTH"},{"ECCENTRICITY":"0.00010820","MEAN_ELEMENT_THEORY":"SGP4","PERIOD":"95.591","GP_ID":"228639183","TLE_LINE1":"1 45583U 20025BE  23081.75296058  .00021047  00000-0  14270-2 0  9990","ARG_OF_PERICENTER":"72.9855","RCS_SIZE":"LARGE","REV_AT_EPOCH":"16168","EPOCH":"2023-03-22T18:04:15.794112","DECAY_DATE":null,"MEAN_MOTION_DDOT":"0.0000000000000","LAUNCH_DATE":"2020-04-22","OBJECT_ID":"2020-025BE","TLE_LINE2":"2 45583  53.0519 258.1117 0001082  72.9855 287.1252 15.06416009161683","OBJECT_NAME":"STARLINK-1340","OBJECT_TYPE":"PAYLOAD","COUNTRY_CODE":"US","BSTAR":"0.00142700000000","EPHEMERIS_TYPE":"0","SITE":"AFETR","NORAD_CAT_ID":"45583","SEMIMAJOR_AXIS":"6925.299","FILE":"3867695","PERIAPSIS":"546.415","CLASSIFICATION_TYPE":"U","MEAN_MOTION":"15.06416009","REF_FRAME":"TEME","MEAN_ANOMALY":"287.1252","ELEMENT_SET_NO":"999","TIME_SYSTEM":"UTC","INCLINATION":"53.0519","RA_OF_ASC_NODE":"258.1117","APOAPSIS":"547.914","MEAN_MOTION_DOT":"0.00021047","CENTER_NAME":"EARTH"},{"ELEMENT_SET_NO":"999","MEAN_ANOMALY":"283.7404","CLASSIFICATION_TYPE":"U","MEAN_MOTION":"15.06432601","REF_FRAME":"TEME","PERIAPSIS":"546.216","FILE":"3867695","CENTER_NAME":"EARTH","APOAPSIS":"548.011","MEAN_MOTION_DOT":"0.00018669","RA_OF_ASC_NODE":"257.8574","INCLINATION":"53.0518","TIME_SYSTEM":"UTC","DECAY_DATE":null,"MEAN_MOTION_DDOT":"0.0000000000000","EPOCH":"2023-03-22T19:22:29.589024","ARG_OF_PERICENTER":"76.3729","RCS_SIZE":"LARGE","REV_AT_EPOCH":"16169","GP_ID":"228639191","TLE_LINE1":"1 45584U 20025BF  23081.80728691  .00018669  00000-0  12678-2 0  9996","PERIOD":"95.590","MEAN_ELEMENT_THEORY":"SGP4","ECCENTRICITY":"0.00012960","EPHEMERIS_TYPE":"0","SITE":"AFETR","SEMIMAJOR_AXIS":"6925.249","NORAD_CAT_ID":"45584","OBJECT_TYPE":"PAYLOAD","COUNTRY_CODE":"US","BSTAR":"0.00126780000000","OBJECT_NAME":"STARLINK-1343","OBJECT_ID":"2020-025BF","LAUNCH_DATE":"2020-04-22","TLE_LINE2":"2 45584  53.0518 257.8574 0001296  76.3729 283.7404 15.06432601161699"}];
